[{"OBJECT_NAME":"STARLINK-32354","OBJECT_ID":"2024-207W","EPOCH":"2026-03-09T00:06:57.098592","MEAN_MOTION":15.27599767,"ECCENTRICITY":0.00019829,"INCLINATION":43.0041,"RA_OF_ASC_NODE":289.3865,"ARG_OF_PERICENTER":289.2672,"MEAN_ANOMALY":70.7966,"EPHEMERIS_TYPE":0,"CLASSIFICATION_TYPE":"U","NORAD_CAT_ID":61932,"ELEMENT_SET_NO":999,"REV_AT_EPOCH":7506,"BSTAR":0.001195832,"MEAN_MOTION_DOT":0.00032811,"MEAN_MOTION_DDOT":0},{"OBJECT_NAME":"COSMOS 970 DEB","OBJECT_ID":"1977-121BY","EPOCH":"2026-03-08T00:28:08.036544","MEAN_MOTION":15.38602545,"ECCENTRICITY":0.01254623,"INCLINATION":65.7647,"RA_OF_ASC_NODE":81.4591,"ARG_OF_PERICENTER":84.8291,"MEAN_ANOMALY":276.7158,"EPHEMERIS_TYPE":0,"CLASSIFICATION_TYPE":"U","NORAD_CAT_ID":20327,"ELEMENT_SET_NO":999,"REV_AT_EPOCH":74479,"BSTAR":0.0016623992,"MEAN_MOTION_DOT":0.00084425,"MEAN_MOTION_DDOT":0}]
